{"spkid": "54336809", "covariance": {"epoch": "2460560.5", "elements": [{"label": "e", "sigma": 2.85232405345957e-08, "name": "e", "units": null, "title": "eccentricity", "value": ".5305961808656489"}, {"value": ".9502091414918199", "title": "perihelion distance", "units": "au", "sigma": 6.27560738655838e-08, "name": "q", "label": "q"}, {"sigma": 2.81576237428032e-05, "name": "tp", "units": "TDB", "value": "2460076.761544033968", "title": "time of perihelion passage", "label": "tp"}, {"label": "node", "sigma": 5.99232403044712e-05, "name": "om", "value": "54.78674209275124", "title": "longitude of the ascending node", "units": "deg"}, {"label": "peri", "sigma": 6.19705754358052e-05, "name": "w", "units": "deg", "title": "argument of perihelion", "value": "140.7589450977646"}, {"title": "inclination", "value": "5.204815329733938", "units": "deg", "name": "i", "sigma": 2.50908379405103e-06, "label": "i"}], "data": [["8.135752505944015E-16", "-1.753973812524423E-15", "3.550115965386825E-13", "-2.666766551593283E-13", "5.571404838831446E-13", "-3.417054155984289E-15"], ["-1.753973812524423E-15", "3.938324807022608E-15", "-1.074442261872173E-12", "5.852911935913414E-13", "-1.271515437518044E-12", "2.212929301160064E-15"], ["3.550115965386825E-13", "-1.074442261872173E-12", "7.92851774841277E-10", "-1.032692151678053E-10", "3.768678741387385E-10", "1.431047576384174E-11"], ["-2.666766551593283E-13", "5.852911935913414E-13", "-1.032692151678053E-10", "3.590794728587402E-9", "-3.63731874481494E-9", "7.866539855499415E-11"], ["5.571404838831446E-13", "-1.271515437518044E-12", "3.768678741387385E-10", "-3.63731874481494E-9", "3.84035221984482E-9", "-7.189468739420061E-11"], ["-3.417054155984289E-15", "2.212929301160064E-15", "1.431047576384174E-11", "7.866539855499415E-11", "-7.189468739420061E-11", "6.295501485569491E-12"]], "labels": ["e", "q", "tp", "node", "peri", "i"]}, "elements": [{"label": "e", "name": "e", "sigma": "2.841E-8", "title": "eccentricity", "value": ".5299569199571679", "units": null}, {"label": "a", "title": "semi-major axis", "value": "2.024150924799674", "units": "au", "name": "a", "sigma": "2.7534E-8"}, {"label": "q", "name": "q", "sigma": "6.2207E-8", "title": "perihelion distance", "value": ".9514381351643858", "units": "au"}, {"label": "i", "units": "deg", "title": "inclination; angle with respect to x-y ecliptic plane", "value": "5.205616757157556", "sigma": "2.5031E-6", "name": "i"}, {"label": "node", "units": "deg", "title": "longitude of the ascending node", "value": "54.68828549155884", "sigma": "6.0001E-5", "name": "om"}, {"label": "peri", "units": "deg", "title": "argument of perihelion", "value": "140.8124756458328", "sigma": "6.2041E-5", "name": "w"}, {"label": "M", "title": "mean anomaly", "value": "24.54429755015282", "units": "deg", "sigma": "2.8895E-6", "name": "ma"}, {"units": "TDB", "value": "2461128.784856753366", "title": "time of perihelion passage", "sigma": "9.2152E-6", "name": "tp", "label": "tp"}, {"label": "period", "name": "per", "sigma": "2.1463E-5", "value": "1051.871682863764", "title": "sidereal orbital period", "units": "d"}, {"sigma": "6.9833E-9", "name": "n", "units": "deg/d", "value": ".342247068596699", "title": "mean motion", "label": "n"}, {"label": "Q", "units": "au", "value": "3.096863714434962", "title": "aphelion distance", "sigma": "4.2126E-8", "name": "ad"}], "epoch": "2461200.5"}